OBJECT_NAME,OBJECT_ID,EPOCH,MEAN_MOTION,ECCENTRICITY,INCLINATION,RA_OF_ASC_NODE,ARG_OF_PERICENTER,MEAN_ANOMALY,EPHEMERIS_TYPE,CLASSIFICATION_TYPE,NORAD_CAT_ID,ELEMENT_SET_NO,REV_AT_EPOCH,BSTAR,MEAN_MOTION_DOT,MEAN_MOTION_DDOT
KOREASAT 5 (MUGUNGWHA 5),2006-034A,2026-07-13T20:50:42.788256,1.00270311,.0001791,1.8517,82.6566,81.8642,192.9516,0,U,29349,999,4158,0,-.365E-5,0
DIRECTV 9S,2006-043A,2026-07-13T19:49:34.949280,1.00270971,.0004982,2.4871,80.5807,33.6908,13.6172,0,U,29494,999,5165,0,-.121E-5,0
OPTUS D1,2006-043B,2026-07-13T19:19:07.868352,1.00270075,.0003303,3.1010,79.3278,31.3356,262.7521,0,U,29495,999,7238,0,-.192E-5,0
BADR-4,2006-051A,2026-07-13T20:42:38.746080,1.00270482,.0004716,2.0713,80.8277,29.5056,166.5067,0,U,29526,999,5153,0,.148E-5,0
WILDBLUE-1,2006-054A,2026-07-13T14:38:48.204096,1.00271077,.0001247,2.8689,80.1510,37.8425,281.9812,0,U,29643,999,5405,0,-.56E-6,0
SKYNET 5A,2007-007B,2026-07-13T21:21:37.627776,1.00269854,.00037,5.3658,73.4145,43.3543,230.6044,0,U,30794,999,7096,0,-.281E-5,0
ANIK F3,2007-009A,2026-07-13T16:19:17.576256,1.00270768,.0002414,1.2637,83.5319,27.3272,306.7925,0,U,31102,999,4682,0,-.6E-7,0
ASTRA 1L,2007-016A,2026-07-13T20:11:30.740064,1.00271292,.0005177,1.3883,81.3606,33.5924,95.1289,0,U,31306,999,4525,0,-.191E-5,0
GALAXY 17 (G-17),2007-016B,2026-07-13T19:54:12.004704,1.00271837,.0003513,3.0365,79.5625,32.6351,33.0254,0,U,31307,999,7007,0,-.214E-5,0
INTELSAT 11 (IS-11),2007-044B,2026-07-13T20:20:52.340928,0.99051802,.0004138,3.6325,78.3455,100.7166,66.3869,0,U,32253,999,6871,0,-.134E-5,0
WGS F1 (USA 195),2007-046A,2026-07-13T18:23:38.695776,1.00270455,.0000507,0.0161,63.6679,162.4686,298.9106,0,U,32258,999,5260,0,-.272E-5,0
SKYNET 5B,2007-056B,2026-07-13T20:25:15.332160,1.00274043,.0003743,5.3175,73.1849,41.4790,148.4648,0,U,32294,999,6846,0,.13E-5,0
ASTRA 4A,2007-057A,2026-07-13T20:19:52.438080,1.00270861,.0002261,0.0440,283.6307,195.4254,122.4176,0,U,32299,999,5191,0,.27E-6,0
HORIZONS-2,2007-063B,2026-07-13T19:57:26.695008,1.00269599,.0003522,2.6684,80.2982,19.5084,57.4489,0,U,32388,999,6808,0,-.261E-5,0
THURAYA-3,2008-001A,2026-07-13T17:20:38.848704,1.00271421,.0002099,6.0331,35.8192,77.1090,142.5181,0,U,32404,999,6775,0,.1E-7,0
THOR 5,2008-006A,2026-07-13T20:18:15.092928,1.00270987,.0002292,0.0510,234.3083,247.3543,113.8544,0,U,32487,999,6758,0,-.14E-6,0
AMC-14,2008-011A,2026-07-13T13:13:38.786304,1.00420259,.0039258,24.0406,20.2013,8.4498,179.0681,0,U,32708,999,6843,0,-.18E-5,0
DIRECTV 11,2008-013A,2026-07-13T14:42:10.380096,1.00271811,.0000116,0.0109,269.6737,300.2834,202.8868,0,U,32729,999,4585,0,-.13E-5,0
ICO G1,2008-016A,2026-07-13T12:21:38.618784,1.00269278,.00024136,5.5301,36.0556,63.7375,284.1531,0,U,32763,999,6680,0,-.179E-5,0
VINASAT-1,2008-018A,2026-07-13T12:22:52.744800,1.00270032,.00014047,0.0324,296.3012,196.6072,116.1408,0,U,32767,999,6685,0,-.332E-5,0
STAR ONE C2,2008-018B,2026-07-13T19:59:56.454720,1.00271274,.0002688,1.3061,82.2096,47.2002,37.2749,0,U,32768,999,6692,0,-.283E-5,0
AMOS-3,2008-022A,2026-07-13T18:52:40.404000,1.00487726,.0002989,0.5216,85.8299,84.8615,103.2906,0,U,32794,999,8260,0,.9E-7,0
GALAXY 18 (G-18),2008-024A,2026-07-13T18:00:40.898304,1.00271011,.0002805,0.0179,42.7768,83.1828,312.8268,0,U,32951,999,4611,0,.2E-6,0
ZHONGXING-9,2008-028A,2026-07-13T21:21:19.055232,1.00269759,.000324,0.8338,84.9849,24.0883,235.3814,0,U,33051,999,6630,0,-.254E-5,0
SKYNET 5C,2008-030A,2026-07-13T20:13:23.060064,1.00272327,.0004056,3.8547,76.7228,45.3112,95.2206,0,U,33055,999,6622,0,-.148E-5,0
TURKSAT 3A,2008-030B,2026-07-13T20:30:24.382368,1.00269538,.0004895,0.0314,71.6373,22.1512,187.5168,0,U,33056,999,5262,0,.141E-5,0
ECHOSTAR 11,2008-035A,2026-07-13T14:39:10.668096,1.00270615,.0002176,1.0712,83.8744,17.6722,299.9284,0,U,33207,999,5147,0,-.63E-6,0
SUPERBIRD-C2,2008-038A,2026-07-13T19:14:38.297760,1.00269547,.000613,2.4273,80.9311,39.7009,235.6937,0,U,33274,999,10599,0,-.314E-5,0
INMARSAT 4-F3,2008-039A,2026-07-13T16:25:09.512832,1.00271243,.0002754,4.3151,31.6918,86.2970,321.8583,0,U,33278,999,4681,0,-.147E-5,0
NIMIQ 4,2008-044A,2026-07-13T14:47:09.902112,1.00268098,.0001918,0.0398,71.1446,43.4798,316.6889,0,U,33373,999,6524,0,0,0
GALAXY 19 (G-19),2008-045A,2026-07-13T19:50:42.341280,1.00272870,.0002304,0.0614,249.8582,235.0100,7.5078,0,U,33376,999,6517,0,-.144E-5,0
ASTRA 1M,2008-057A,2026-07-13T19:46:38.790048,1.00268794,.0004397,0.3627,82.7516,40.8674,124.1242,0,U,33436,999,4600,0,.115E-5,0
