KOREASAT 5 (MUGUNGWHA 5)
1 29349U 06034A   26194.86855079 -.00000365  00000+0  00000+0 0  9993
2 29349   1.8517  82.6566 0001791  81.8642 192.9516  1.00270311 41587
DIRECTV 9S              
1 29494U 06043A   26194.82609895 -.00000121  00000+0  00000+0 0  9993
2 29494   2.4871  80.5807 0004982  33.6908  13.6172  1.00270971 51656
OPTUS D1                
1 29495U 06043B   26194.80495218 -.00000192  00000+0  00000+0 0  9992
2 29495   3.1010  79.3278 0003303  31.3356 262.7521  1.00270075 72389
BADR-4                  
1 29526U 06051A   26194.86294845  .00000148  00000+0  00000+0 0  9995
2 29526   2.0713  80.8277 0004716  29.5056 166.5067  1.00270482 51535
WILDBLUE-1              
1 29643U 06054A   26194.61028014 -.00000056  00000+0  00000+0 0  9993
2 29643   2.8689  80.1510 0001247  37.8425 281.9812  1.00271077 54057
SKYNET 5A               
1 30794U 07007B   26194.89001884 -.00000281  00000+0  00000+0 0  9997
2 30794   5.3658  73.4145 0003700  43.3543 230.6044  1.00269854 70964
ANIK F3                 
1 31102U 07009A   26194.68006454 -.00000006  00000+0  00000+0 0  9993
2 31102   1.2637  83.5319 0002414  27.3272 306.7925  1.00270768 46824
ASTRA 1L                
1 31306U 07016A   26194.84132801 -.00000191  00000+0  00000+0 0  9996
2 31306   1.3883  81.3606 0005177  33.5924  95.1289  1.00271292 45252
GALAXY 17 (G-17)        
1 31307U 07016B   26194.82930561 -.00000214  00000+0  00000+0 0  9990
2 31307   3.0365  79.5625 0003513  32.6351  33.0254  1.00271837 70079
INTELSAT 11 (IS-11)     
1 32253U 07044B   26194.84782802 -.00000134  00000+0  00000+0 0  9998
2 32253   3.6325  78.3455 0004138 100.7166  66.3869  0.99051802 68719
WGS F1 (USA 195)        
1 32258U 07046A   26194.76642009 -.00000272  00000+0  00000+0 0  9993
2 32258   0.0161  63.6679 0000507 162.4686 298.9106  1.00270455 52604
SKYNET 5B               
1 32294U 07056B   26194.85087190  .00000130  00000+0  00000+0 0  9990
2 32294   5.3175  73.1849 0003743  41.4790 148.4648  1.00274043 68467
ASTRA 4A                
1 32299U 07057A   26194.84713470  .00000027  00000+0  00000+0 0  9997
2 32299   0.0440 283.6307 0002261 195.4254 122.4176  1.00270861 51919
HORIZONS-2              
1 32388U 07063B   26194.83155897 -.00000261  00000+0  00000+0 0  9996
2 32388   2.6684  80.2982 0003522  19.5084  57.4489  1.00269599 68080
THURAYA-3               
1 32404U 08001A   26194.72267186  .00000001  00000+0  00000+0 0  9992
2 32404   6.0331  35.8192 0002099  77.1090 142.5181  1.00271421 67755
THOR 5                  
1 32487U 08006A   26194.84600802 -.00000014  00000+0  00000+0 0  9992
2 32487   0.0510 234.3083 0002292 247.3543 113.8544  1.00270987 67584
AMC-14                  
1 32708U 08011A   26194.55114336 -.00000180  00000+0  00000+0 0  9998
2 32708  24.0406  20.2013 0039258   8.4498 179.0681  1.00420259 68432
DIRECTV 11              
1 32729U 08013A   26194.61262014 -.00000130  00000+0  00000+0 0  9992
2 32729   0.0109 269.6737 0000116 300.2834 202.8868  1.00271811 45850
ICO G1                  
1 32763U 08016A   26194.51503031 -.00000179  00000+0  00000+0 0  9992
2 32763   5.5301  36.0556 0002413  63.7375 284.1531  1.00269278 66802
VINASAT-1               
1 32767U 08018A   26194.51588825 -.00000332  00000+0  00000+0 0  9993
2 32767   0.0324 296.3012 0001404 196.6072 116.1408  1.00270032 66850
STAR ONE C2             
1 32768U 08018B   26194.83329230 -.00000283  00000+0  00000+0 0  9997
2 32768   1.3061  82.2096 0002688  47.2002  37.2749  1.00271274 66924
AMOS-3                  
1 32794U 08022A   26194.78657875  .00000009  00000+0  00000+0 0  9999
2 32794   0.5216  85.8299 0002989  84.8615 103.2906  1.00487726 82604
GALAXY 18 (G-18)        
1 32951U 08024A   26194.75047336  .00000020  00000+0  00000+0 0  9991
2 32951   0.0179  42.7768 0002805  83.1828 312.8268  1.00271011 46113
ZHONGXING-9             
1 33051U 08028A   26194.88980388 -.00000254  00000+0  00000+0 0  9994
2 33051   0.8338  84.9849 0003240  24.0883 235.3814  1.00269759 66302
SKYNET 5C               
1 33055U 08030A   26194.84262801 -.00000148  00000+0  00000+0 0  9992
2 33055   3.8547  76.7228 0004056  45.3112  95.2206  1.00272327 66222
TURKSAT 3A              
1 33056U 08030B   26194.85444887  .00000141  00000+0  00000+0 0  9992
2 33056   0.0314  71.6373 0004895  22.1512 187.5168  1.00269538 52628
ECHOSTAR 11             
1 33207U 08035A   26194.61054014 -.00000063  00000+0  00000+0 0  9992
2 33207   1.0712  83.8744 0002176  17.6722 299.9284  1.00270615 51475
SUPERBIRD-C2            
1 33274U 08038A   26194.80183215 -.00000314  00000+0  00000+0 0  9995
2 33274   2.4273  80.9311 0006130  39.7009 235.6937  1.00269547105992
INMARSAT 4-F3           
1 33278U 08039A   26194.68413788 -.00000147  00000+0  00000+0 0  9991
2 33278   4.3151  31.6918 0002754  86.2970 321.8583  1.00271243 46816
NIMIQ 4                 
1 33373U 08044A   26194.61608683  .00000000  00000+0  00000+0 0  9993
2 33373   0.0398  71.1446 0001918  43.4798 316.6889  1.00268098 65240
GALAXY 19 (G-19)        
1 33376U 08045A   26194.82687895 -.00000144  00000+0  00000+0 0  9992
2 33376   0.0614 249.8582 0002304 235.0100   7.5078  1.00272870 65176
ASTRA 1M                
1 33436U 08057A   26194.82406007  .00000115  00000+0  00000+0 0  9993
2 33436   0.3627  82.7516 0004397  40.8674 124.1242  1.00268794 46003
